IRIDIUM 166             
1 43570U 18061B   24160.51618528  .00000014  00000+0 -22336-5 0  9990
2 43570  86.3976   5.4369 0001945  94.2338 265.9080 14.34217655307520
IRIDIUM 158             
1 43571U 18061C   24160.55424199 -.00000078  00000+0 -34743-4 0  9999
2 43571  86.3976   5.4302 0002155  90.2265 269.9177 14.34217299307498
IRIDIUM 165             
1 43572U 18061D   24160.50983747  .00000080  00000+0  21372-4 0  9999
2 43572  86.3979   5.4810 0002327  91.8097 268.3365 14.34215574307516
IRIDIUM 155             
1 43573U 18061E   24160.33224959  .00000540  00000+0  18566-3 0  9995
2 43573  86.3974   5.4611 0001994  93.2650 266.8774 14.34220206307459
IRIDIUM 154             
1 43574U 18061F   24160.52252880  .00000101  00000+0  28849-4 0  9990
2 43574  86.3976   5.4788 0002296  82.7067 277.4390 14.34217649307536
IRIDIUM 163             
1 43575U 18061G   24160.50350065  .00000293  00000+0  97556-4 0  9996
2 43575  86.3975   5.4250 0002135  88.7249 271.4192 14.34217899307508
IRIDIUM 156             
1 43576U 18061H   24160.40835535  .00000511  00000+0  17523-3 0  9994
2 43576  86.3977   5.4710 0002273  90.0079 270.1377 14.34214767307481
IRIDIUM 164             
1 43577U 18061J   24160.52887166  .00000067  00000+0  17026-4 0  9990
2 43577  86.3975   5.4498 0002471  85.2028 274.9450 14.34217172307547
